CCSDS_OMM_VERS = 2.0
CREATION_DATE  = 
ORIGINATOR     = 

OBJECT_NAME    = CYGNUS NG-23
OBJECT_ID      = 2025-208A
CENTER_NAME    = EARTH
REF_FRAME      = TEME
TIME_SYSTEM    = UTC
MEAN_ELEMENT_THEORY = SGP/SGP4

EPOCH          = 2025-12-19T18:20:02.855616
MEAN_MOTION    = 15.49672026
ECCENTRICITY   = .00031868
INCLINATION    = 51.6318
RA_OF_ASC_NODE = 107.6945
ARG_OF_PERICENTER = 273.0117
MEAN_ANOMALY   = 87.0507

EPHEMERIS_TYPE = 0
CLASSIFICATION_TYPE = U
NORAD_CAT_ID   = 65616
ELEMENT_SET_NO = 999
REV_AT_EPOCH   = 22
BSTAR          = .1262585E-3
MEAN_MOTION_DOT = .6675E-4
MEAN_MOTION_DDOT = 0

CCSDS_OMM_VERS = 2.0
CREATION_DATE  = 
ORIGINATOR     = 

OBJECT_NAME    = DRAGONFLY
OBJECT_ID      = 1998-067XH
CENTER_NAME    = EARTH
REF_FRAME      = TEME
TIME_SYSTEM    = UTC
MEAN_ELEMENT_THEORY = SGP/SGP4

EPOCH          = 2025-12-19T14:23:03.835680
MEAN_MOTION    = 15.74182800
ECCENTRICITY   = .000728
INCLINATION    = 51.6251
RA_OF_ASC_NODE = 100.5779
ARG_OF_PERICENTER = 320.5398
MEAN_ANOMALY   = 39.5070

EPHEMERIS_TYPE = 0
CLASSIFICATION_TYPE = U
NORAD_CAT_ID   = 65729
ELEMENT_SET_NO = 999
REV_AT_EPOCH   = 1424
BSTAR          = .96899E-3
MEAN_MOTION_DOT = .144123E-2
MEAN_MOTION_DDOT = 0

CCSDS_OMM_VERS = 2.0
CREATION_DATE  = 
ORIGINATOR     = 

OBJECT_NAME    = 1998-067XK
OBJECT_ID      = 1998-067XK
CENTER_NAME    = EARTH
REF_FRAME      = TEME
TIME_SYSTEM    = UTC
MEAN_ELEMENT_THEORY = SGP/SGP4

EPOCH          = 2025-12-20T00:10:02.025696
MEAN_MOTION    = 15.67078773
ECCENTRICITY   = .0004764
INCLINATION    = 51.6294
RA_OF_ASC_NODE = 100.3244
ARG_OF_PERICENTER = 292.7833
MEAN_ANOMALY   = 67.2659

EPHEMERIS_TYPE = 0
CLASSIFICATION_TYPE = U
NORAD_CAT_ID   = 65731
ELEMENT_SET_NO = 999
REV_AT_EPOCH   = 1428
BSTAR          = .70175E-3
MEAN_MOTION_DOT = .76617E-3
MEAN_MOTION_DDOT = 0

CCSDS_OMM_VERS = 2.0
CREATION_DATE  = 
ORIGINATOR     = 

OBJECT_NAME    = RSP-03
OBJECT_ID      = 1998-067XL
CENTER_NAME    = EARTH
REF_FRAME      = TEME
TIME_SYSTEM    = UTC
MEAN_ELEMENT_THEORY = SGP/SGP4

EPOCH          = 2025-12-19T10:11:34.022112
MEAN_MOTION    = 15.70283101
ECCENTRICITY   = .0005658
INCLINATION    = 51.6265
RA_OF_ASC_NODE = 102.4221
ARG_OF_PERICENTER = 294.5755
MEAN_ANOMALY   = 65.4652

EPHEMERIS_TYPE = 0
CLASSIFICATION_TYPE = U
NORAD_CAT_ID   = 65732
ELEMENT_SET_NO = 999
REV_AT_EPOCH   = 1421
BSTAR          = .84699E-3
MEAN_MOTION_DOT = .106087E-2
MEAN_MOTION_DDOT = 0

CCSDS_OMM_VERS = 2.0
CREATION_DATE  = 
ORIGINATOR     = 

OBJECT_NAME    = GHS-01
OBJECT_ID      = 1998-067XM
CENTER_NAME    = EARTH
REF_FRAME      = TEME
TIME_SYSTEM    = UTC
MEAN_ELEMENT_THEORY = SGP/SGP4

EPOCH          = 2025-12-19T17:26:50.755776
MEAN_MOTION    = 15.77819432
ECCENTRICITY   = .00083434
INCLINATION    = 51.6273
RA_OF_ASC_NODE = 99.1864
ARG_OF_PERICENTER = 325.0318
MEAN_ANOMALY   = 35.0134

EPHEMERIS_TYPE = 0
CLASSIFICATION_TYPE = U
NORAD_CAT_ID   = 65733
ELEMENT_SET_NO = 999
REV_AT_EPOCH   = 1428
BSTAR          = .10728211E-2
MEAN_MOTION_DOT = .188446E-2
MEAN_MOTION_DDOT = 0

CCSDS_OMM_VERS = 2.0
CREATION_DATE  = 
ORIGINATOR     = 

OBJECT_NAME    = YOTSUBA-KULOVER
OBJECT_ID      = 1998-067XN
CENTER_NAME    = EARTH
REF_FRAME      = TEME
TIME_SYSTEM    = UTC
MEAN_ELEMENT_THEORY = SGP/SGP4

EPOCH          = 2025-12-19T10:32:35.848320
MEAN_MOTION    = 15.60329664
ECCENTRICITY   = .00017537
INCLINATION    = 51.6289
RA_OF_ASC_NODE = 106.2819
ARG_OF_PERICENTER = 320.2615
MEAN_ANOMALY   = 39.8249

EPHEMERIS_TYPE = 0
CLASSIFICATION_TYPE = U
NORAD_CAT_ID   = 65941
ELEMENT_SET_NO = 999
REV_AT_EPOCH   = 1090
BSTAR          = .6131661E-3
MEAN_MOTION_DOT = .50991E-3
MEAN_MOTION_DDOT = 0

CCSDS_OMM_VERS = 2.0
CREATION_DATE  = 
ORIGINATOR     = 

OBJECT_NAME    = BOTAN
OBJECT_ID      = 1998-067XP
CENTER_NAME    = EARTH
REF_FRAME      = TEME
TIME_SYSTEM    = UTC
MEAN_ELEMENT_THEORY = SGP/SGP4

EPOCH          = 2025-12-19T08:45:55.508256
MEAN_MOTION    = 15.64228558
ECCENTRICITY   = .00028928
INCLINATION    = 51.6281
RA_OF_ASC_NODE = 105.7870
ARG_OF_PERICENTER = 295.6773
MEAN_ANOMALY   = 64.3923

EPHEMERIS_TYPE = 0
CLASSIFICATION_TYPE = U
NORAD_CAT_ID   = 65942
ELEMENT_SET_NO = 999
REV_AT_EPOCH   = 1090
BSTAR          = .85844533E-3
MEAN_MOTION_DOT = .83736E-3
MEAN_MOTION_DDOT = 0

CCSDS_OMM_VERS = 2.0
CREATION_DATE  = 
ORIGINATOR     = 

OBJECT_NAME    = E-KAGAKU-1
OBJECT_ID      = 1998-067XQ
CENTER_NAME    = EARTH
REF_FRAME      = TEME
TIME_SYSTEM    = UTC
MEAN_ELEMENT_THEORY = SGP/SGP4

EPOCH          = 2025-12-18T08:24:49.666176
MEAN_MOTION    = 15.60193795
ECCENTRICITY   = .00013451
INCLINATION    = 51.6302
RA_OF_ASC_NODE = 111.7666
ARG_OF_PERICENTER = 249.8249
MEAN_ANOMALY   = 110.2600

EPHEMERIS_TYPE = 0
CLASSIFICATION_TYPE = U
NORAD_CAT_ID   = 65943
ELEMENT_SET_NO = 999
REV_AT_EPOCH   = 1073
BSTAR          = .84619625E-3
MEAN_MOTION_DOT = .70368E-3
MEAN_MOTION_DDOT = 0

CCSDS_OMM_VERS = 2.0
CREATION_DATE  = 
ORIGINATOR     = 

OBJECT_NAME    = HRC MONOBLOCK CAMERA
OBJECT_ID      = 1998-067XR
CENTER_NAME    = EARTH
REF_FRAME      = TEME
TIME_SYSTEM    = UTC
MEAN_ELEMENT_THEORY = SGP/SGP4

EPOCH          = 2025-12-20T01:04:16.026816
MEAN_MOTION    = 15.54630593
ECCENTRICITY   = .0002482
INCLINATION    = 51.6306
RA_OF_ASC_NODE = 105.0705
ARG_OF_PERICENTER = 219.0079
MEAN_ANOMALY   = 141.0733

EPHEMERIS_TYPE = 0
CLASSIFICATION_TYPE = U
NORAD_CAT_ID   = 66052
ELEMENT_SET_NO = 999
REV_AT_EPOCH   = 997
BSTAR          = .40364E-3
MEAN_MOTION_DOT = .26826E-3
MEAN_MOTION_DDOT = 0

CCSDS_OMM_VERS = 2.0
CREATION_DATE  = 
ORIGINATOR     = 

OBJECT_NAME    = HTV-X1
OBJECT_ID      = 2025-241A
CENTER_NAME    = EARTH
REF_FRAME      = TEME
TIME_SYSTEM    = UTC
MEAN_ELEMENT_THEORY = SGP/SGP4

EPOCH          = 2025-12-19T18:20:02.855616
MEAN_MOTION    = 15.49672026
ECCENTRICITY   = .00031868
INCLINATION    = 51.6318
RA_OF_ASC_NODE = 107.6945
ARG_OF_PERICENTER = 273.0117
MEAN_ANOMALY   = 87.0507

EPHEMERIS_TYPE = 0
CLASSIFICATION_TYPE = U
NORAD_CAT_ID   = 66174
ELEMENT_SET_NO = 999
REV_AT_EPOCH   = 51
BSTAR          = .1262585E-3
MEAN_MOTION_DOT = .6675E-4
MEAN_MOTION_DDOT = 0

CCSDS_OMM_VERS = 2.0
CREATION_DATE  = 
ORIGINATOR     = 

OBJECT_NAME    = SZ-21 MODULE
OBJECT_ID      = 2025-246C
CENTER_NAME    = EARTH
REF_FRAME      = TEME
TIME_SYSTEM    = UTC
MEAN_ELEMENT_THEORY = SGP/SGP4

EPOCH          = 2025-12-20T00:23:58.586784
MEAN_MOTION    = 15.62845969
ECCENTRICITY   = .0005614
INCLINATION    = 41.4774
RA_OF_ASC_NODE = 331.6436
ARG_OF_PERICENTER = 298.6843
MEAN_ANOMALY   = 61.3432

EPHEMERIS_TYPE = 0
CLASSIFICATION_TYPE = U
NORAD_CAT_ID   = 66515
ELEMENT_SET_NO = 999
REV_AT_EPOCH   = 558
BSTAR          = .225E-3
MEAN_MOTION_DOT = .20613E-3
MEAN_MOTION_DDOT = 0

CCSDS_OMM_VERS = 2.0
CREATION_DATE  = 
ORIGINATOR     = 

OBJECT_NAME    = SHENZHOU-22
OBJECT_ID      = 2025-272A
CENTER_NAME    = EARTH
REF_FRAME      = TEME
TIME_SYSTEM    = UTC
MEAN_ELEMENT_THEORY = SGP/SGP4

EPOCH          = 2025-12-19T22:50:46.623264
MEAN_MOTION    = 15.59484120
ECCENTRICITY   = .00077419
INCLINATION    = 41.4684
RA_OF_ASC_NODE = 332.9127
ARG_OF_PERICENTER = 94.7688
MEAN_ANOMALY   = 265.4034

EPHEMERIS_TYPE = 0
CLASSIFICATION_TYPE = U
NORAD_CAT_ID   = 66645
ELEMENT_SET_NO = 999
REV_AT_EPOCH   = 26357
BSTAR          = .2198914E-3
MEAN_MOTION_DOT = .17657E-3
MEAN_MOTION_DDOT = 0

